ALOS-2                  
1 39766U 14029A   26171.25027759  .00001075  00000+0  15075-3 0  9994
2 39766  97.9222 268.3700 0001677  92.1708 267.9695 14.79476941652030
KAZEOSAT 2              
1 40010U 14033A   26171.26124679  .00000786  00000+0  96866-4 0  9999
2 40010  97.5402  10.7102 0007576 318.7543  41.3100 14.85474732649419
HODOYOSHI-4             
1 40011U 14033B   26171.26158962  .00000834  00000+0  95873-4 0  9993
2 40011  97.5451 355.9347 0022296 297.5068  62.3883 14.88131868649268
DEIMOS-2                
1 40013U 14033D   26171.26461116  .00001237  00000+0  12203-3 0  9996
2 40013  97.5816  45.6446 0001392  57.1140 303.0214 14.93731162638184
HODOYOSHI-3             
1 40015U 14033F   26171.21637635  .00000758  00000+0  93365-4 0  9990
2 40015  97.6421 334.1349 0032406 347.2549  12.7844 14.85393393648076
SPOT 7                  
1 40053U 14034A   26171.33207096  .00000194  00000+0  48750-4 0  9992
2 40053  98.0622 233.7432 0001277  95.1628 264.9718 14.60960243637595
SKYSAT-B                
1 40072U 14037D   26171.15109719  .00000961  00000+0  11130-3 0  9992
2 40072  98.3841 130.2850 0004161 269.2142  90.8596 14.88034044646408
WORLDVIEW-3 (WV-3)      
1 40115U 14048A   26171.26685498  .00000607  00000+0  77394-4 0  9999
2 40115  97.8566 246.0573 0000737  21.7288 338.3958 14.85026142642369
GAOFEN-2                
1 40118U 14049A   26171.28445929  .00000656  00000+0  91804-4 0  9994
2 40118  98.0103 235.4890 0006325 214.4551 145.6252 14.80902060639694
YAOGAN-21               
1 40143U 14053A   26171.30931250  .00007276  00000+0  28175-3 0  9992
2 40143  97.1468 211.4111 0009865  84.9758 275.2607 15.26413343655433
YAOGAN-22               
1 40275U 14063A   26171.30378197 -.00000018  00000+0  77402-4 0  9990
2 40275 100.7729 322.6287 0006415 178.3759 181.7374 13.15531026560225
ASNARO                  
1 40298U 14070A   26171.25449029  .00004766  00000+0  22773-3 0  9993
2 40298  97.3446 247.2858 0006037 155.6323 204.5198 15.19470029644477
YAOGAN-24               
1 40310U 14072A   26171.33559880  .00000096  00000+0  21544-4 0  9994
2 40310  98.1500 308.7000 0012588 252.2241 107.7595 14.76224283624187
CBERS 4                 
1 40336U 14079A   26171.31320265  .00000044  00000+0  30005-4 0  9995
2 40336  98.3524 228.0471 0001725  62.4174 297.7187 14.35509674604401
YAOGAN-26               
1 40362U 14088A   26171.30225465  .00022153  00000+0  43271-3 0  9992
2 40362  97.0644 171.4388 0005823  60.0242 300.1587 15.47461624638181
SMAP                    
1 40376U 15003A   26171.22520209  .00000300  00000+0  67082-4 0  9997
2 40376  98.1276 178.2767 0001358  97.0977 263.0380 14.63368743608066
KOMPSAT-3A              
1 40536U 15014A   26171.26820297  .00022984  00000+0  33095-3 0  9999
2 40536  97.6890 162.8559 0056825 163.3558 196.9578 15.54116850622294
SENTINEL-2A             
1 40697U 15028A   26171.29161795 -.00000048  00000+0 -17630-5 0  9994
2 40697  98.5680 246.0994 0001123  93.3300 266.8012 14.30815803574175
GAOFEN-8                
1 40701U 15030A   26171.32402594  .00008848  00000+0  18290-3 0  9997
2 40701  97.6907   4.8815 0009069 174.9902 185.1439 15.46038338611936
CARBONITE 1 (CBNT-1)    
1 40718U 15032D   26171.28500332  .00000361  00000+0  49906-4 0  9992
2 40718  97.6511 349.2209 0013041 287.0224  72.9562 14.83591948589807
YAOGAN-27               
1 40878U 15040A   26171.29745490  .00000160  00000+0  53229-3 0  9994
2 40878 100.1158 157.5457 0007718 202.9186 157.1585 13.16071398518072
GAOFEN-9 01             
1 40894U 15047A   26171.30150961  .00000718  00000+0  94260-4 0  9994
2 40894  97.6279 206.8549 0028585 128.0251 232.3550 14.82888719580658
YAOGAN-28               
1 41026U 15064A   26171.33628074  .00005586  00000+0  21032-3 0  9993
2 41026  97.3082 309.5336 0010924 172.2516 187.8895 15.27453338591162
YAOGAN-29               
1 41038U 15069A   26171.28134169 -.00000177  00000+0 -15133-4 0  9991
2 41038  98.0022 199.9195 0002460  48.8902 311.2523 14.83085482571086
KENT RIDGE 1            
1 41167U 15077B   26170.58638348  .00003326  00000+0  10531-3 0  9996
2 41167  14.9791 248.1477 0008250 272.4275  87.5102 15.23144229581469
GAOFEN-4                
1 41194U 15083A   26171.06850507 -.00000340  00000+0  00000+0 0  9990
2 41194   0.3663  83.7589 0004248 119.2095 195.6653  1.00273374 38557
JASON-3                 
1 41240U 16002A   26171.26476424 -.00000042  00000+0  79903-4 0  9990
2 41240  66.0406 119.3647 0008479 272.6436  87.3612 12.87628118487644
SENTINEL-3A             
1 41335U 16011A   26171.30227071  .00000055  00000+0  40659-4 0  9991
2 41335  98.6248 238.6412 0001417  99.3436 260.7905 14.26733410538509
ZIYUAN 3-02 (ZY 3-02)   
1 41556U 16033A   26171.28117236  .00004415  00000+0  20067-3 0  9992
2 41556  97.3832 246.9971 0012374 279.4817  80.5020 15.21204584558452
CARTOSAT-2C             
1 41599U 16040A   26171.28796086  .00002079  00000+0  10187-3 0  9999
2 41599  97.4478 231.2234 0010315 121.7098 238.5144 15.19210531554182
