OBJECT_NAME,OBJECT_ID,EPOCH,MEAN_MOTION,ECCENTRICITY,INCLINATION,RA_OF_ASC_NODE,ARG_OF_PERICENTER,MEAN_ANOMALY,EPHEMERIS_TYPE,CLASSIFICATION_TYPE,NORAD_CAT_ID,ELEMENT_SET_NO,REV_AT_EPOCH,BSTAR,MEAN_MOTION_DOT,MEAN_MOTION_DDOT
ALOS-2,2014-029A,2026-06-20T06:00:23.983776,14.79476941,.00016778,97.9222,268.3700,92.1708,267.9695,0,U,39766,999,65203,.15075075E-3,.1075E-4,0
KAZEOSAT 2,2014-033A,2026-06-20T06:16:11.722656,14.85474732,.00075768,97.5402,10.7102,318.7543,41.3100,0,U,40010,999,64941,.96865792E-4,.786E-5,0
HODOYOSHI-4,2014-033B,2026-06-20T06:16:41.343168,14.88131868,.00222968,97.5451,355.9347,297.5068,62.3883,0,U,40011,999,64926,.95872734E-4,.834E-5,0
DEIMOS-2,2014-033D,2026-06-20T06:21:02.404224,14.93731162,.00013925,97.5816,45.6446,57.1140,303.0214,0,U,40013,999,63818,.1220271E-3,.1237E-4,0
HODOYOSHI-3,2014-033F,2026-06-20T05:11:34.916640,14.85393393,.0032406,97.6421,334.1349,347.2549,12.7844,0,U,40015,999,64807,.93364681E-4,.758E-5,0
SPOT 7,2014-034A,2026-06-20T07:58:10.930944,14.60960243,.0001277,98.0622,233.7432,95.1628,264.9718,0,U,40053,999,63759,.48749708E-4,.194E-5,0
SKYSAT-B,2014-037D,2026-06-20T03:37:34.797216,14.88034044,.00041615,98.3841,130.2850,269.2142,90.8596,0,U,40072,999,64640,.11130257E-3,.961E-5,0
WORLDVIEW-3 (WV-3),2014-048A,2026-06-20T06:24:16.270272,14.85026142,.00007373,97.8566,246.0573,21.7288,338.3958,0,U,40115,999,64236,.77394102E-4,.607E-5,0
GAOFEN-2,2014-049A,2026-06-20T06:49:37.282656,14.80902060,.0006325,98.0103,235.4890,214.4551,145.6252,0,U,40118,999,63969,.91803809E-4,.656E-5,0
YAOGAN-21,2014-053A,2026-06-20T07:25:24.600000,15.26413343,.00098653,97.1468,211.4111,84.9758,275.2607,0,U,40143,999,65543,.28174749E-3,.7276E-4,0
YAOGAN-22,2014-063A,2026-06-20T07:17:26.762208,13.15531026,.00064157,100.7729,322.6287,178.3759,181.7374,0,U,40275,999,56022,.77402323E-4,-.18E-6,0
ASNARO,2014-070A,2026-06-20T06:06:27.961056,15.19470029,.00060371,97.3446,247.2858,155.6323,204.5198,0,U,40298,999,64447,.22773416E-3,.4766E-4,0
YAOGAN-24,2014-072A,2026-06-20T08:03:15.736320,14.76224283,.0012588,98.1500,308.7000,252.2241,107.7595,0,U,40310,999,62418,.21543958E-4,.96E-6,0
CBERS 4,2014-079A,2026-06-20T07:31:00.708960,14.35509674,.00017251,98.3524,228.0471,62.4174,297.7187,0,U,40336,999,60440,.30005355E-4,.44E-6,0
YAOGAN-26,2014-088A,2026-06-20T07:15:14.801760,15.47461624,.0005823,97.0644,171.4388,60.0242,300.1587,0,U,40362,999,63818,.43271246E-3,.22153E-3,0
SMAP,2015-003A,2026-06-20T05:24:17.460576,14.63368743,.00013584,98.1276,178.2767,97.0977,263.0380,0,U,40376,999,60806,.67081901E-4,.3E-5,0
KOMPSAT-3A,2015-014A,2026-06-20T06:26:12.736608,15.54116850,.00568256,97.6890,162.8559,163.3558,196.9578,0,U,40536,999,62229,.33095483E-3,.22984E-3,0
SENTINEL-2A,2015-028A,2026-06-20T06:59:55.790880,14.30815803,.00011234,98.5680,246.0994,93.3300,266.8012,0,U,40697,999,57417,-.1763024E-5,-.48E-6,0
GAOFEN-8,2015-030A,2026-06-20T07:46:35.841216,15.46038338,.0009069,97.6907,4.8815,174.9902,185.1439,0,U,40701,999,61193,.18289625E-3,.8848E-4,0
CARBONITE 1 (CBNT-1),2015-032D,2026-06-20T06:50:24.286848,14.83591948,.00130414,97.6511,349.2209,287.0224,72.9562,0,U,40718,999,58980,.4990612E-4,.361E-5,0
YAOGAN-27,2015-040A,2026-06-20T07:08:20.103360,13.16071398,.00077184,100.1158,157.5457,202.9186,157.1585,0,U,40878,999,51807,.53229024E-3,.16E-5,0
GAOFEN-9 01,2015-047A,2026-06-20T07:14:10.430304,14.82888719,.00285853,97.6279,206.8549,128.0251,232.3550,0,U,40894,999,58065,.94260399E-4,.718E-5,0
YAOGAN-28,2015-064A,2026-06-20T08:04:14.655936,15.27453338,.00109242,97.3082,309.5336,172.2516,187.8895,0,U,41026,999,59116,.21031588E-3,.5586E-4,0
YAOGAN-29,2015-069A,2026-06-20T06:45:07.922016,14.83085482,.00024609,98.0022,199.9195,48.8902,311.2523,0,U,41038,999,57108,-.15133112E-4,-.177E-5,0
KENT RIDGE 1,2015-077B,2026-06-19T14:04:23.532672,15.23144229,.00082501,14.9791,248.1477,272.4275,87.5102,0,U,41167,999,58146,.10530968E-3,.3326E-4,0
GAOFEN-4,2015-083A,2026-06-20T01:38:38.838048,1.00273374,.00042483,0.3663,83.7589,119.2095,195.6653,0,U,41194,999,3855,0,-.34E-5,0
JASON-3,2016-002A,2026-06-20T06:21:15.630336,12.87628118,.00084795,66.0406,119.3647,272.6436,87.3612,0,U,41240,999,48764,.79903133E-4,-.42E-6,0
SENTINEL-3A,2016-011A,2026-06-20T07:15:16.189344,14.26733410,.00014177,98.6248,238.6412,99.3436,260.7905,0,U,41335,999,53850,.40659171E-4,.55E-6,0
ZIYUAN 3-02 (ZY 3-02),2016-033A,2026-06-20T06:44:53.291904,15.21204584,.00123742,97.3832,246.9971,279.4817,80.5020,0,U,41556,999,55845,.20066701E-3,.4415E-4,0
CARTOSAT-2C,2016-040A,2026-06-20T06:54:39.818304,15.19210531,.0010315,97.4478,231.2234,121.7098,238.5144,0,U,41599,999,55418,.10187494E-3,.2079E-4,0
